start=new Date('2021-12-07T00:00:00.000Z').valueOf();
sats=[{"RA_OF_ASC_NODE":"301.8640","CENTER_NAME":"EARTH","FILE":"3234296","EPOCH":"2021-12-06T21:29:22.180704","TLE_LINE1":"1 45370U 20019L   21340.89539561  .00000882  00000-0  78147-4 0  9996","OBJECT_ID":"2020-019L","SITE":"AFETR","PERIOD":"95.593","APOAPSIS":"548.418","GP_ID":"191232681","RCS_SIZE":"LARGE","TIME_SYSTEM":"UTC","CLASSIFICATION_TYPE":"U","DECAY_DATE":null,"ARG_OF_PERICENTER":"55.4610","PERIAPSIS":"546.047","NORAD_CAT_ID":"45370","MEAN_MOTION_DOT":"0.00000882","OBJECT_NAME":"STARLINK-1281","EPHEMERIS_TYPE":"0","ELEMENT_SET_NO":"999","OBJECT_TYPE":"PAYLOAD","LAUNCH_DATE":"2020-03-18","COUNTRY_CODE":"US","INCLINATION":"53.0542","ECCENTRICITY":"0.00017120","MEAN_ELEMENT_THEORY":"SGP4","MEAN_MOTION":"15.06393718","TLE_LINE2":"2 45370  53.0542 301.8640 0001712  55.4610 304.6541 15.06393718 95543","SEMIMAJOR_AXIS":"6925.368","REF_FRAME":"TEME","BSTAR":"0.00007814700000","MEAN_MOTION_DDOT":"0.0000000000000","REV_AT_EPOCH":"9554","MEAN_ANOMALY":"304.6541"},{"MEAN_MOTION_DOT":"0.00000066","OBJECT_NAME":"STARLINK-1287","NORAD_CAT_ID":"45371","INCLINATION":"53.0543","COUNTRY_CODE":"US","OBJECT_TYPE":"PAYLOAD","LAUNCH_DATE":"2020-03-18","ELEMENT_SET_NO":"999","EPHEMERIS_TYPE":"0","MEAN_ELEMENT_THEORY":"SGP4","MEAN_MOTION":"15.06395529","TLE_LINE2":"2 45371  53.0543 303.2266 0002077  54.1503 305.9678 15.06395529 95498","ECCENTRICITY":"0.00020770","MEAN_ANOMALY":"305.9678","MEAN_MOTION_DDOT":"0.0000000000000","REV_AT_EPOCH":"9549","SEMIMAJOR_AXIS":"6925.362","REF_FRAME":"TEME","BSTAR":"0.00002334400000","FILE":"3234296","EPOCH":"2021-12-06T14:14:08.010528","CENTER_NAME":"EARTH","RA_OF_ASC_NODE":"303.2266","APOAPSIS":"548.666","GP_ID":"191232431","RCS_SIZE":"LARGE","PERIOD":"95.592","TLE_LINE1":"1 45371U 20019M   21340.59314827  .00000066  00000-0  23344-4 0  9993","SITE":"AFETR","OBJECT_ID":"2020-019M","TIME_SYSTEM":"UTC","CLASSIFICATION_TYPE":"U","PERIAPSIS":"545.789","DECAY_DATE":null,"ARG_OF_PERICENTER":"54.1503"},{"TIME_SYSTEM":"UTC","CLASSIFICATION_TYPE":"U","DECAY_DATE":null,"ARG_OF_PERICENTER":"59.4354","PERIAPSIS":"545.963","CENTER_NAME":"EARTH","FILE":"3234296","EPOCH":"2021-12-06T14:35:22.425216","RA_OF_ASC_NODE":"303.1718","PERIOD":"95.593","APOAPSIS":"548.516","GP_ID":"191233683","RCS_SIZE":"LARGE","TLE_LINE1":"1 45372U 20019N   21340.60789844 -.00000181  00000-0  67654-5 0  9993","OBJECT_ID":"2020-019N","SITE":"AFETR","MEAN_ELEMENT_THEORY":"SGP4","MEAN_MOTION":"15.06391612","TLE_LINE2":"2 45372  53.0554 303.1718 0001843  59.4354 300.6817 15.06391612 95490","ECCENTRICITY":"0.00018430","MEAN_MOTION_DDOT":"0.0000000000000","REV_AT_EPOCH":"9549","MEAN_ANOMALY":"300.6817","SEMIMAJOR_AXIS":"6925.374","BSTAR":"0.00000676540000","REF_FRAME":"TEME","MEAN_MOTION_DOT":"-0.00000181","OBJECT_NAME":"STARLINK-1288","NORAD_CAT_ID":"45372","OBJECT_TYPE":"PAYLOAD","LAUNCH_DATE":"2020-03-18","COUNTRY_CODE":"US","INCLINATION":"53.0554","EPHEMERIS_TYPE":"0","ELEMENT_SET_NO":"999"},{"MEAN_ANOMALY":"307.7246","REV_AT_EPOCH":"9543","MEAN_MOTION_DDOT":"0.0000000000000","REF_FRAME":"TEME","BSTAR":"0.00002097100000","SEMIMAJOR_AXIS":"6925.359","TLE_LINE2":"2 45373  53.0552 305.0375 0002128  52.3936 307.7246 15.06396603 95437","MEAN_MOTION":"15.06396603","MEAN_ELEMENT_THEORY":"SGP4","ECCENTRICITY":"0.00021280","INCLINATION":"53.0552","COUNTRY_CODE":"US","LAUNCH_DATE":"2020-03-18","OBJECT_TYPE":"PAYLOAD","ELEMENT_SET_NO":"999","EPHEMERIS_TYPE":"0","OBJECT_NAME":"STARLINK-1295","MEAN_MOTION_DOT":"0.00000031","NORAD_CAT_ID":"45373","PERIAPSIS":"545.750","DECAY_DATE":null,"ARG_OF_PERICENTER":"52.3936","CLASSIFICATION_TYPE":"U","TIME_SYSTEM":"UTC","GP_ID":"191204824","RCS_SIZE":"LARGE","APOAPSIS":"548.698","PERIOD":"95.592","OBJECT_ID":"2020-019P","SITE":"AFETR","TLE_LINE1":"1 45373U 20019P   21340.19137812  .00000031  00000-0  20971-4 0  9993","EPOCH":"2021-12-06T04:35:35.069568","FILE":"3234035","CENTER_NAME":"EARTH","RA_OF_ASC_NODE":"305.0375"},{"GP_ID":"191203579","RCS_SIZE":"LARGE","APOAPSIS":"548.706","PERIOD":"95.592","OBJECT_ID":"2020-019Q","SITE":"AFETR","TLE_LINE1":"1 45374U 20019Q   21340.18769436  .00001589  00000-0  12559-3 0  9997","EPOCH":"2021-12-06T04:30:16.792704","FILE":"3234035","CENTER_NAME":"EARTH","RA_OF_ASC_NODE":"305.0544","PERIAPSIS":"545.724","DECAY_DATE":null,"ARG_OF_PERICENTER":"54.9044","CLASSIFICATION_TYPE":"U","TIME_SYSTEM":"UTC","COUNTRY_CODE":"US","INCLINATION":"53.0547","LAUNCH_DATE":"2020-03-18","OBJECT_TYPE":"PAYLOAD","ELEMENT_SET_NO":"999","EPHEMERIS_TYPE":"0","OBJECT_NAME":"STARLINK-1300","MEAN_MOTION_DOT":"0.00001589","NORAD_CAT_ID":"45374","MEAN_ANOMALY":"305.2146","REV_AT_EPOCH":"9543","MEAN_MOTION_DDOT":"0.0000000000000","REF_FRAME":"TEME","BSTAR":"0.00012559000000","SEMIMAJOR_AXIS":"6925.350","TLE_LINE2":"2 45374  53.0547 305.0544 0002153  54.9044 305.2146 15.06399544 95435","MEAN_MOTION":"15.06399544","MEAN_ELEMENT_THEORY":"SGP4","ECCENTRICITY":"0.00021530"},{"TIME_SYSTEM":"UTC","CLASSIFICATION_TYPE":"U","PERIAPSIS":"545.965","DECAY_DATE":null,"ARG_OF_PERICENTER":"57.7870","FILE":"3234035","EPOCH":"2021-12-06T04:51:31.165056","CENTER_NAME":"EARTH","RA_OF_ASC_NODE":"304.9930","APOAPSIS":"548.520","GP_ID":"191203331","RCS_SIZE":"LARGE","PERIOD":"95.593","TLE_LINE1":"1 45375U 20019R   21340.20244404  .00002344  00000-0  17624-3 0  9992","SITE":"AFETR","OBJECT_ID":"2020-019R","MEAN_ELEMENT_THEORY":"SGP4","MEAN_MOTION":"15.06390556","TLE_LINE2":"2 45375  53.0557 304.9930 0001845  57.7870 302.3298 15.06390556 95439","ECCENTRICITY":"0.00018450","MEAN_ANOMALY":"302.3298","REV_AT_EPOCH":"9543","MEAN_MOTION_DDOT":"0.0000000000000","SEMIMAJOR_AXIS":"6925.378","BSTAR":"0.00017624000000","REF_FRAME":"TEME","MEAN_MOTION_DOT":"0.00002344","OBJECT_NAME":"STARLINK-1302","NORAD_CAT_ID":"45375","INCLINATION":"53.0557","COUNTRY_CODE":"US","OBJECT_TYPE":"PAYLOAD","LAUNCH_DATE":"2020-03-18","ELEMENT_SET_NO":"999","EPHEMERIS_TYPE":"0"},{"OBJECT_TYPE":"PAYLOAD","LAUNCH_DATE":"2020-03-18","INCLINATION":"53.0554","COUNTRY_CODE":"US","EPHEMERIS_TYPE":"0","ELEMENT_SET_NO":"999","MEAN_MOTION_DOT":"0.00002116","OBJECT_NAME":"STARLINK-1304","NORAD_CAT_ID":"45376","REV_AT_EPOCH":"9549","MEAN_MOTION_DDOT":"0.0000000000000","MEAN_ANOMALY":"296.7137","SEMIMAJOR_AXIS":"6925.365","REF_FRAME":"TEME","BSTAR":"0.00016096000000","MEAN_ELEMENT_THEORY":"SGP4","TLE_LINE2":"2 45376  53.0554 303.1209 0001848  63.4041 296.7137 15.06394628 95492","MEAN_MOTION":"15.06394628","ECCENTRICITY":"0.00018480","PERIOD":"95.592","APOAPSIS":"548.510","GP_ID":"191233183","RCS_SIZE":"LARGE","TLE_LINE1":"1 45376U 20019S   21340.61895950  .00002116  00000-0  16096-3 0  9995","SITE":"AFETR","OBJECT_ID":"2020-019S","CENTER_NAME":"EARTH","FILE":"3234296","EPOCH":"2021-12-06T14:51:18.100800","RA_OF_ASC_NODE":"303.1209","DECAY_DATE":null,"ARG_OF_PERICENTER":"63.4041","PERIAPSIS":"545.950","TIME_SYSTEM":"UTC","CLASSIFICATION_TYPE":"U"},{"NORAD_CAT_ID":"45377","OBJECT_NAME":"STARLINK-1305","MEAN_MOTION_DOT":"0.00001193","ELEMENT_SET_NO":"999","EPHEMERIS_TYPE":"0","COUNTRY_CODE":"US","INCLINATION":"53.0545","LAUNCH_DATE":"2020-03-18","OBJECT_TYPE":"PAYLOAD","ECCENTRICITY":"0.00020510","MEAN_MOTION":"15.06401432","TLE_LINE2":"2 45377  53.0545 305.0847 0002051  58.2322 301.8866 15.06401432 95436","MEAN_ELEMENT_THEORY":"SGP4","BSTAR":"0.00009898000000","REF_FRAME":"TEME","SEMIMAJOR_AXIS":"6925.344","MEAN_ANOMALY":"301.8866","REV_AT_EPOCH":"9543","MEAN_MOTION_DDOT":"0.0000000000000","RA_OF_ASC_NODE":"305.0847","EPOCH":"2021-12-06T04:19:39.482112","FILE":"3234035","CENTER_NAME":"EARTH","OBJECT_ID":"2020-019T","SITE":"AFETR","TLE_LINE1":"1 45377U 20019T   21340.18031808  .00001193  00000-0  98980-4 0  9999","RCS_SIZE":"LARGE","GP_ID":"191204326","APOAPSIS":"548.630","PERIOD":"95.592","CLASSIFICATION_TYPE":"U","TIME_SYSTEM":"UTC","PERIAPSIS":"545.789","DECAY_DATE":null,"ARG_OF_PERICENTER":"58.2322"},{"OBJECT_ID":"2020-019U","SITE":"AFETR","TLE_LINE1":"1 45378U 20019U   21340.63370246 -.00000486  00000-0 -13712-4 0  9998","RCS_SIZE":"LARGE","GP_ID":"191232682","APOAPSIS":"548.626","PERIOD":"95.593","RA_OF_ASC_NODE":"303.0573","EPOCH":"2021-12-06T15:12:31.892544","FILE":"3234296","CENTER_NAME":"EARTH","PERIAPSIS":"545.866","DECAY_DATE":null,"ARG_OF_PERICENTER":"58.5289","CLASSIFICATION_TYPE":"U","TIME_SYSTEM":"UTC","ELEMENT_SET_NO":"999","EPHEMERIS_TYPE":"0","COUNTRY_CODE":"US","INCLINATION":"53.0551","LAUNCH_DATE":"2020-03-18","OBJECT_TYPE":"PAYLOAD","NORAD_CAT_ID":"45378","OBJECT_NAME":"STARLINK-1310","MEAN_MOTION_DOT":"-0.00000486","BSTAR":"-0.00001371200000","REF_FRAME":"TEME","SEMIMAJOR_AXIS":"6925.381","MEAN_ANOMALY":"301.5894","REV_AT_EPOCH":"9550","MEAN_MOTION_DDOT":"0.0000000000000","ECCENTRICITY":"0.00019930","TLE_LINE2":"2 45378  53.0551 303.0573 0001993  58.5289 301.5894 15.06389333 95508","MEAN_MOTION":"15.06389333","MEAN_ELEMENT_THEORY":"SGP4"},{"CENTER_NAME":"EARTH","FILE":"3234296","EPOCH":"2021-12-06T15:17:49.787520","RA_OF_ASC_NODE":"303.0360","PERIOD":"95.593","APOAPSIS":"548.574","RCS_SIZE":"LARGE","GP_ID":"191232432","TLE_LINE1":"1 45379U 20019V   21340.63738180 -.00000416  00000-0 -89968-5 0  9994","SITE":"AFETR","OBJECT_ID":"2020-019V","TIME_SYSTEM":"UTC","CLASSIFICATION_TYPE":"U","ARG_OF_PERICENTER":"56.9307","DECAY_DATE":null,"PERIAPSIS":"545.900","MEAN_MOTION_DOT":"-0.00000416","OBJECT_NAME":"STARLINK-1319","NORAD_CAT_ID":"45379","OBJECT_TYPE":"PAYLOAD","LAUNCH_DATE":"2020-03-18","COUNTRY_CODE":"US","INCLINATION":"53.0541","EPHEMERIS_TYPE":"0","ELEMENT_SET_NO":"999","MEAN_ELEMENT_THEORY":"SGP4","TLE_LINE2":"2 45379  53.0541 303.0360 0001930  56.9307 303.1867 15.06392334 95509","MEAN_MOTION":"15.06392334","ECCENTRICITY":"0.00019300","MEAN_MOTION_DDOT":"0.0000000000000","REV_AT_EPOCH":"9550","MEAN_ANOMALY":"303.1867","SEMIMAJOR_AXIS":"6925.372","BSTAR":"-0.00000899680000","REF_FRAME":"TEME"}];
